#dP2022  8 19  0  0  0.00000000      96 __u+U ITR00 FIT  IAC
## 2223 432000.00000000   900.00000000 59810 0.0000000000000
+  117   C06C07C08C09C10C11C12C13C14C16C19C20C21C22C23C24C25
+        C26C27C28C29C30C32C33C34C35C36C37C38C39C40C41C42C43
+        C44C45C46E01E02E03E04E05E07E08E09E10E11E12E13E14E15
+        E18E19E21E24E25E26E27E30E31E33E34E36G01G02G03G04G05
+        G06G07G08G09G10G11G12G13G14G15G16G17G18G19G20G21G22
+        G23G24G25G26G27G28G29G30G31G32J02J03R01R02R03R04R05
+        R07R08R09R11R12R13R14R15R17R18R19R20R21R24R25  0  0
++         8  7  9  8  7  7  7  8  9  8  6  7  8  6  7  7  7
++         8  7  5  7  6  7  6  6  6  6  6  7  7  7  8  6  8
++         7  7  6  5  8  6  7  6  5  8  9  7  7  5  6  6  6
++         5  7  7  6  6  7  6  5  7  6  6  7  5  7  5  6  7
++         6  6  7  6  5  6  6  7  7  7  7  7  7  6  4  6  5
++         6  7  6  7  7  7  7  6  6  6  8  9  8  7  7  5  6
++         7  8  6  6  8  5  6  6  5  8  8  7  5  6  7  0  0
%c M  cc GPS ccc cccc cccc cccc cccc ccccc ccccc ccccc ccccc
%c cc cc ccc ccc cccc cccc cccc cccc ccccc ccccc ccccc ccccc
%f  0.0000000  0.000000000  0.00000000000  0.000000000000000
%f  0.0000000  0.000000000  0.00000000000  0.000000000000000
%i    0    0    0    0      0      0      0      0         0
%i    0    0    0    0      0      0      0      0         0
/* INFORMATION & ANALYSIS CENTER (IAC)      ULTRA-RAPID DATA
/* S/V CLOCKS ARE ALIGNED TO GNSS TIME                      
/* G:C1WC2W R:C1PC2P E:C1XC5X C:C2IC6I J:C1CC2S             
/* PCV:IGS14_2218 OL/AL:FES2004  NONE     YN ORB:CoN CLK:CoN
*  2022 08 19 14 45  0.00000000
PC06 -16173.855374  25574.074048  29282.204548    646.175038
PC07 -10644.177596  40675.197019   4251.007780    -24.212172
PC08    785.885637  26745.747402 -32535.717588    446.001178
PC09  -6635.758303  25439.608266  33239.639378   -890.260333
PC10  -5604.380286  42030.410087  -1656.093837    106.846861
PC11 -10420.577204 -12403.976933  22789.781032   -459.987569
PC12   9670.126853 -17028.659697  19904.409742   -545.797786
PC13   6368.152403  30176.510468 -28498.484628     57.040818
PC14  -6798.969915 -22118.544982 -15542.910363    600.325434
PC16 -19501.695027  24909.411490  27928.975511    142.073968
PC19  12148.097340  13700.373214  21083.353105   -464.457594
PC20   1454.582713  26356.119436   9109.792953    170.933703
PC21  10912.640982 -23961.920092   9219.507498   -218.714319
PC22  16305.299423  -7409.865470  21386.664022   -244.172622
PC23 -21938.230061  -2728.305540  17043.684984   -967.530336
PC24  -8168.971493 -21762.057639 -15458.804610   -969.337284
PC25 -22431.480948 -16488.008010   2079.972797   -690.633406
PC26   8141.777846 -14278.236776 -22561.780317    692.935308
PC27 -18045.726259  16186.657186 -13839.267196      7.734974
PC28 -26855.995659   7145.560881   2604.048995      3.094619
PC29  20076.362209   6048.026307 -18420.793357      1.982300
PC30   1042.987732  16381.224066 -22574.292146    502.258746
PC32 -10758.151624  24028.948089  -9262.923842   -724.809542
PC33 -12210.685635 -13701.224166 -21017.837690   -449.366716
PC34  -2232.669757 -16073.538784  22690.811795   -332.682018
PC35  26698.811401  -7204.172929  -3862.705931    419.600657
PC36  21807.854427  17341.185557  -1499.904796   -968.313370
PC37  -9657.436396  13153.159404  22658.729787   -936.090509
PC38  -7687.059124  23565.752423 -34064.840758     18.274447
PC39 -24132.407574  25120.440512  23635.759410     -0.265242
PC40 -16470.802696  38204.952963   7497.778572     -2.581649
PC41 -16314.764278   6917.357183 -21512.600187     -0.396475
PC42   -719.188533 -26697.472960  -8016.011590   -142.464595
PC43 -19522.628593  -6705.693522  18761.217363      9.522110
PC44  17642.177252 -16835.355350  13577.478110     22.628503
PC45  21729.396869   2484.169182 -17311.202887    839.071294
PC46   9708.713452  21881.790916  14320.854118   -495.050357
PE01   2670.750202 -25005.647809 -15604.944094   -537.780681
PE02  -2554.106717  25094.184622  15486.360996    319.348273
PE03 -12726.544451  24998.531234   9469.299612   -591.085977
PE04  -4453.382527 -18912.092387 -22325.152641  -1096.893151
PE05 -22779.140061  16498.049953  -9230.485608   -152.047757
PE07  19433.961378   1466.146078  22279.722550   -697.993231
PE08   4516.552996  18739.950040  22466.319921   -583.983140
PE09 -19321.244949  -1357.967140 -22386.177812   -628.462934
PE10 -23415.192388 -12696.002888  12911.969836   -470.926983
PE11 -28529.260901  -7275.349667   3014.259073   2571.920223
PE12 -14833.493549 -15964.275820  20019.467991   -123.498497
PE13  28332.184869   7674.183967  -3810.609027    430.305752
PE14 -20595.053334      4.188911  16022.115576  -1744.970711
PE15  14691.403447  15909.409337 -20178.943733    725.883297
PE18  16564.869605  11312.483087 -23149.260189  -1076.683328
PE19  14716.969279 -24654.979016  -7187.843225  -4766.204374
PE21  14174.763898  -9499.801436 -24179.860486   -752.736353
PE24 -18311.456759 -13658.857380  18827.478367   -789.508061
PE25 -14320.585401   9189.743811  24233.346348   -585.061675
PE26  24701.064747  -5598.960496  15307.697182  -1513.314173
PE27  18416.483239  12503.008085 -19498.409684   -372.000524
PE30  11179.412846  27283.735262  -2552.689897   -767.276175
PE31 -11799.168155 -26932.544229   3415.892724   -501.951782
PE33   7532.623194 -14714.254437  24551.414925   -453.746541
PE34  -7313.858558  14790.609122 -24587.859995     -0.203671
PE36 -25229.827709   4995.766923 -14656.909259   -419.022660
PG01  19803.869340  14026.943739 -11495.890210    299.196530
PG02  -6681.817987 -16013.873881  20716.878105   -648.675642
PG03  12213.742392  21332.778715  10074.183604   -335.028101
PG04  10354.230622  11119.739550  21791.733909   -130.887984
PG05  -5934.710957 -25716.111031   2058.373677    -93.470927
PG06  16043.664652  -8586.920726  19436.564001    430.879763
PG07  26024.375986   5704.875302  -2734.711519    313.598857
PG08   2761.613065  17039.973360 -20124.534791    -81.136853
PG09  18782.741890      4.985016  18722.273140   -306.381572
PG10 -12948.446143   8316.580635 -21460.608665   -533.619516
PG11   3740.627013 -14729.454045  21780.366580    -11.783721
PG12  -9825.345477 -23138.854200   8470.443582   -264.782374
PG13   7471.703479 -19429.718662 -16549.887739    370.873694
PG14  14286.486752  -6414.241741 -21436.027814   -108.534990
PG15  -5284.732421 -17113.269237 -19954.442967    -35.999668
PG16  -1257.481159  25197.381015   7243.292374   -521.123583
PG17  22233.297940 -12477.623812  -7107.408533    650.123026
PG18 -25804.025191  -5151.916866  -4115.922376     76.753237
PG19  20227.410879 -16906.946366   1586.802687    199.282916
PG20   1788.179724 -22424.204053  14301.943272    493.496606
PG21  13132.417515  15021.109405 -17256.023540    160.350270
PG22 -17998.626250  18889.055291   4854.495866    312.618863
PG23 -15870.660510  -3226.163099 -21086.961308    -37.392178
PG24 -17112.542283 -14636.829406 -14714.397957    163.497300
PG25 -15697.800558 -12563.289755  17201.951252    362.597418
PG26  -6029.405926  20208.415711  15870.252679    224.468862
PG27  -9240.742270  21149.981424 -12999.857030    218.475143
PG28  10190.124411 -16179.165802 -18027.657663    340.581620
PG29 -18327.647170  -1566.480933  19142.258121   -544.182256
PG30  23164.728746  -2750.566173 -12840.199669   -536.087955
PG31 -14587.479959  10058.762722  19783.527354   -190.226560
PG32 -20954.009743  15239.926364  -5206.739926   -208.338413
PJ02 -26282.837234  23493.025933  28172.838193     -3.419857
PJ03 -33860.533997  18814.719260 -12092.477888     -0.776781
PR01  -6752.718593  24294.057595   3899.401621     13.386599
PR02   3935.509063  15470.199422  19912.891366    527.352198
PR03  12104.081620  -1863.265961  22425.013083     62.132460
PR04  13299.080826 -17811.241964  12547.744908    154.473770
PR05   7400.471576 -24050.707764  -4250.793434     98.196119
PR07 -12258.334206   2574.639978 -22177.457723     39.623622
PR08 -13223.501863  17959.132626 -12301.147534    -66.778523
PR09 -16134.964530 -19688.955736   -725.468377     72.060376
PR11  -9858.389437   5175.596883  22963.776531     29.952754
PR12   4609.062313  18503.813170  16966.990909     20.193732
PR13  15447.840968  20179.089819   2212.792429    -25.883643
PR14  17744.767638   9711.729932 -15534.277802     24.468353
PR15   9355.895362  -5966.701788 -22941.791398     94.120923
PR17  24495.156793   -469.190205  -7010.819670    553.758842
PR18  22315.934286  -7612.540341   9795.724933     38.279622
PR19   9954.098371 -10513.573630  20992.507776   -200.562616
PR20 -12143.170575  -7977.045206  20959.703632    -76.812799
PR21 -24907.915050   1121.456468   5467.652083   -326.825541
PR24  13080.728995   7819.247191 -20435.621639    109.779328
PR25 -22203.437895   7127.699993 -10306.050024 999999.999999
EOF
